NOAA 2 (ITOS-D)
1  6235U 72082A   26122.05269347 -.00000039  00000-0  49425-4 0  9995
2  6235 102.0104 140.1144 0003689 256.1630 123.9138 12.53213555449174
SOLRAD-7B
1  1291U 65016D   26122.00524448  .00000035  00000-0  64374-4 0  9997
2  1291  70.0800 334.4487 0021390 188.6465 171.4275 13.94970175110269
OSCAR-7 (AO-7)
1  7530U 74089B   26122.01179338 -.00000042  00000-0  28922-4 0  9992
2  7530 101.9925 134.7737 0012014 217.8444 167.2097 12.53697383354735
UOSAT-2 (UO-11)
1 14781U 84021B   26122.17513038  .00001531  00000-0  16181-3 0  9997
2 14781  97.8027  88.2776 0007210 348.4871  11.6181 14.90673353250274
FLTSATCOM-7 (USA-20)
1 17181U 86096A   26121.93951883 -.00000270  00000-0  00000+0 0  9994
2 17181  12.7389 340.3790 0042080 330.6434  21.0083  0.98930054151507
FLTSATCOM-8 (USA-46)
1 20253U 89077A   26121.79312490 -.00000367  00000-0  00000-0 0  9997
2 20253  12.4348 351.4450 0006705  19.1207 260.3265  1.00278022260099
OSCAR 16 (PACSAT)
1 20439U 90005D   26122.04422044  .00000130  00000-0  63267-4 0  9997
2 20439  98.8560 156.6327 0010744  13.3817  16.6321 14.33921693895322
LUSAT (LO-19)
1 20442U 90005G   26121.99488370  .00000128  00000-0  62594-4 0  9997
2 20442  98.8879 142.5213 0011256 347.3263  12.7636 14.34108434895777
UFO 2 (USA 95)
1 22787U 93056A   26121.84724869  .00000125  00000-0  00000-0 0  9997
2 22787  11.8797   3.8103 0009163 354.4959 195.1875  1.00266898118088
EYESAT-1 (AO-27)
1 22825U 93061C   26122.12958426  .00000104  00000-0  56775-4 0  9997
2 22825  98.6898 189.5544 0007505 230.3562 129.6959 14.30929457700410
ITAMSAT (IO-26) 
1 22826U 93061D   26122.19260655  .00000117  00000-0  61065-4 0  9997
2 22826  98.6845 189.5302 0008282 212.3564 147.7111 14.31355204700730
UFO 3 (USA 104)
1 23132U 94035A   26121.91109205 -.00000097  00000-0  00000+0 0  9997
2 23132  12.3481   5.9931 0003350 311.0089 221.6306  1.00268094131232
RADIO ROSTO (RS-15)
1 23439U 94085A   26122.17503766 -.00000036  00000-0  18934-3 0  9993
2 23439  64.8209  17.6312 0154648  12.2630 348.1992 11.27583775290715
UFO 4 (USA 108)
1 23467U 95003A   26121.89157046 -.00000019  00000-0  00000+0 0  9991
2 23467   9.7054  13.3857 0003368  24.5382 315.1765  1.00274150114486
UFO 7 (USA 127)
1 23967U 96042A   26122.09280969 -.00000264  00000-0  00000+0 0  9996
2 23967  11.0758  17.3330 0007287 105.2033  94.5240  1.00229363109028
JAS-2 (FO-29)
1 24278U 96046B   26122.17480970  .00000002  00000-0  38829-4 0  9993
2 24278  98.5292 337.3359 0349241 215.7085 142.0239 13.53272141466943
UFO 8 (USA 138)
1 25258U 98016A   26121.63746691 -.00000186  00000-0  00000-0 0  9996
2 25258  11.0765  23.0465 0005452 279.2083 299.9248  1.00277695103397
TECHSAT-1B (GO-32)
1 25397U 98043D   26121.91459249  .00000064  00000-0  47909-4 0  9998
2 25397  99.0062 113.5096 0001546  33.8269 326.3007 14.24419145444745
ISS (ZARYA)
1 25544U 98067A   26122.13533514  .00007461  00000-0  14312-3 0  9990
2 25544  51.6309 168.0490 0007234  13.9157 346.2029 15.49057929564615
UFO 10 (USA 146)
1 25967U 99063A   26121.05280395 -.00000186  00000-0  00000-0 0  9996
2 25967   9.8528  27.4558 0003310 339.9791 207.8203  1.00271697 96877
PCSAT (NO-44)
1 26931U 01043C   26122.13090712  .00000151  00000-0  87099-4 0  9999
2 26931  67.0525   3.3941 0006422 263.8951  96.1419 14.31938008283859
PROBA-1
1 26958U 01049B   26122.20105531  .00002666  00000-0  17558-3 0  9993
2 26958  97.9610 129.1318 0053323 278.8062  80.7129 15.07326789336690
SAUDISAT-1C (SO-50)
1 27607U 02058C   26121.76023789  .00001348  00000-0  17601-3 0  9995
2 27607  64.5517 272.6163 0075624 270.9121  88.3321 14.82944454257571
CUTE-1 (CO-55)
1 27844U 03031E   26121.95402279  .00000304  00000-0  15057-3 0  9990
2 27844  98.6752 131.0926 0008819 326.3478  33.7140 14.24306450185095
CUBESAT XI-IV (CO-57)
1 27848U 03031J   26121.00566327  .00000259  00000-0  13282-3 0  9992
2 27848  98.6788 129.9070 0009103 348.5967  11.5004 14.23594934184660
MOZHAYETS-4 (RS-22)
1 27939U 03042A   26122.18352697  .00001204  00000-0  19394-3 0  9999
2 27939  98.3462 305.2461 0012413  57.9830  78.4562 14.73385233208773
UFO 11 (USA 174)
1 28117U 03057A   26121.79753726 -.00000100  00000-0  00000-0 0  9994
2 28117   8.9426  34.0567 0002608 351.6450 196.5647  1.00272126 81980
CUBESAT XI-V (CO-58)
1 28895U 05043F   26121.85735265  .00001476  00000-0  24048-3 0  9996
2 28895  98.2932 276.5239 0013862 357.9727   2.1421 14.72507973 94931
CAPE-1
1 31130U 07012P   26122.19841344  .00001076  00000-0  20194-3 0  9998
2 31130  98.4438  95.4741 0082774 214.0495 145.5380 14.64768966 11622
CUTE-1.7+APD II (CO-65)
1 32785U 08021C   26122.16967991  .00006543  00000-0  41750-3 0  9995
2 32785  97.8253 102.6548 0008978 174.8126 185.3197 15.09012972978259
SEEDS-II (CO-66)
1 32791U 08021J   26121.95486789  .00019753  00000-0  65757-3 0  9999
2 32791  97.7523 117.7064 0005101 105.2842 254.8962 15.31168166980216
YUBILEINY (RS-30)
1 32953U 08025A   26122.14547949 -.00000010  00000-0 -14456-3 0  9999
2 32953  82.5084  24.0773 0020568  52.9935 307.3023 12.43177566813976
KKS-1 (KISEKI)
1 33499U 09002H   26122.10777964  .00001557  00000-0  19831-3 0  9996
2 33499  98.1194  43.8244 0009344  81.0975 279.1295 14.83003163929360
SWISSCUBE
1 35932U 09051B   26122.19071120  .00001171  00000-0  24128-3 0  9991
2 35932  98.4064  29.2752 0007000   7.5176 352.6128 14.62391027882432
BEESAT
1 35933U 09051C   26122.17643853  .00000973  00000-0  20554-3 0  9996
2 35933  98.3993  28.9917 0005796  23.4704 336.6760 14.61643730882463
ITUPSAT-1
1 35935U 09051E   26122.19566826  .00000896  00000-0  19524-3 0  9993
2 35935  98.4079  28.2514 0008173  30.1574 330.0094 14.60369899882029
PROBA-2
1 36037U 09059B   26122.09178529  .00000190  00000-0  54765-4 0  9997
2 36037  98.2448 306.0845 0014436  65.7849 294.4855 14.54842531874822
XIWANG-1 (HOPE-1)
1 36122U 09072B   26122.18841869 -.00000302  00000-0 -67541-3 0  9993
2 36122 100.3995  76.7627 0007461 344.1156  15.9722 13.16436963786953
EWS-G2 (GOES-15)
1 36411U 10008A   26122.13938207  .00000028  00000-0  00000+0 0  9999
2 36411   1.1556  83.6803 0004436  23.7605 226.0730  1.00273408 59170
TISAT-1
1 36799U 10035E   26122.09862737  .00020677  00000-0  71445-3 0  9994
2 36799  98.0700  64.6347 0004339  71.8669 288.3042 15.29960299860650
HORYU-2
1 38340U 12025D   26121.93084602  .00003392  00000-0  35097-3 0  9996
2 38340  98.2108 253.0028 0007453 342.0105  18.0847 14.90787933741834
AAUSAT-3
1 39087U 13009B   26121.97040656  .00000652  00000-0  22102-3 0  9992
2 39087  98.3701 306.8183 0011239 357.6678   2.4456 14.39881083690522
STRAND-1
1 39090U 13009E   26122.10521535  .00000278  00000-0  10784-3 0  9999
2 39090  98.3913 303.4762 0008896  17.0043 343.1440 14.37135474690448
CUBEBUG-1 (CAPITAN BETO)
1 39153U 13018D   26122.18595242  .00004885  00000-0  42938-3 0  9997
2 39153  98.1618 280.1009 0010059 303.9831  56.0433 14.97015071704184
PROBA-V
1 39159U 13021A   26122.22304029  .00000076  00000-0  51332-4 0  9990
2 39159  98.3564 103.1059 0002934 267.7553  92.3291 14.23587051674577
ZACUBE-1 (TSHEPISOSAT)
1 39417U 13066B   26122.14303487  .00005768  00000-0  44987-3 0  9994
2 39417  97.8128  84.2319 0043445  47.6207 312.8681 15.00814563673822
TRITON-1
1 39427U 13066M   26122.16897385  .00005559  00000-0  66653-3 0  9994
2 39427  97.8281  33.0258 0091111  25.2717 335.2911 14.81493865667271
DELFI-N3XT
1 39428U 13066N   26121.85594433  .00010131  00000-0  89122-3 0  9996
2 39428  97.8355  42.2281 0075416   2.5097 357.6486 14.94516551667706
GOMX-1
1 39430U 13066Q   26122.15128822  .00002177  00000-0  33346-3 0  9996
2 39430  97.6509 325.5153 0127766 224.9667 134.1138 14.69283470663152
VELOX-PII
1 39438U 13066Y   26122.12454355  .00002890  00000-0  27709-3 0  9992
2 39438  97.8718  73.4568 0054228 134.3999 226.1679 14.92821989670965
CUBEBUG-2 (LO-74)
1 39440U 13066AA  26121.83674549  .00003148  00000-0  29572-3 0  9998
2 39440  97.8881  70.6420 0057831 179.6191 180.5082 14.93428707670079
FUNCUBE-1 (AO-73)
1 39444U 13066AE  26122.17507811  .00010851  00000-0  68191-3 0  9996
2 39444  97.8256  92.6904 0036766   3.8384 356.3119 15.08867210672727
UWE-3
1 39446U 13066AG  26122.15650178  .00005573  00000-0  48114-3 0  9999
2 39446  97.8677  77.9452 0051193 112.3633 248.3024 14.96643380670699
UNISAT-6
1 40012U 14033C   26121.93860434  .00003141  00000-0  34246-3 0  9998
2 40012  97.7820 275.4885 0044463 219.5108 140.2864 14.87971418639281
DUCHIFAT-1
1 40021U 14033M   26122.10350920  .00071269  00000-0  98640-3 0  9996
2 40021  98.0523 175.1039 0004936 215.6869 144.4054 15.56863201648569
FUNCUBE-3 (EO-79)
1 40025U 14033R   26122.00436191  .00009404  00000-0  47171-3 0  9999
2 40025  98.0980 129.9369 0009592  35.0252 325.1609 15.17534408646020
SMAP
1 40376U 15003A   26122.13128773  .00000484  00000-0  10267-3 0  9999
2 40376  98.1292 129.8756 0001670  73.2182 286.9204 14.63398093600887
LILACSAT-2
1 40908U 15049K   26122.19706288  .00019110  00000-0  34271-3 0  9996
2 40908  97.4709 157.3298 0008549  69.6338 290.5831 15.49933261588625
LAPAN-A2 (IO-86)
1 40931U          25360.30710720  .00000000  00000-0  12800-3 0    00
2 40931   6.0006 332.5373 0012733 338.8432   8.1437 14.79075515    01
LQSAT
1 40958U 15057A   26122.19805613  .00000500  00000-0  78121-4 0  9998
2 40958  97.6672 117.8551 0018547  63.4366 296.8743 14.76723388568520
PRATHAM
1 41783U 16059A   26121.93598367  .00000812  00000-0  15172-3 0  9996
2 41783  97.8324 120.8290 0031503   8.7867 351.3883 14.67131055512730
ALSAT-1N
1 41789U 16059G   26122.07844535  .00001042  00000-0  18396-3 0  9996
2 41789  97.8013 127.4843 0025510 338.8904  21.1247 14.69231590513237
CAS-2T & KS-1Q
1 41847U 16066G   26122.17965316  .00000730  00000-0  11292-3 0  9992
2 41847  98.3829 198.4353 0340903 269.1617  87.0508 14.44575918498152
GOES-16
1 41866U 16071A   26122.15600388 -.00000084  00000-0  00000+0 0  9996
2 41866   0.2258  85.5047 0001298 265.4961 180.5181  1.00271724 34641
